STARLINK-32345          
1 60920U 24154T   26068.90370037 -.00000132  00000+0  76749-5 0  9998
2 60920  53.1603 283.1347 0001239 104.4531 255.6607 15.30186512 86375
NUSHSAT1                
1 63211U 25052B   26068.64700493  .00023034  00000+0  74857-3 0  9997
2 63211  97.4095 325.7239 0005501  84.7512 275.4357 15.31903202 54882
